NORAD_CAT_ID,OBJECT_NAME,OBJECT_TYPE,EPOCH,MEAN_MOTION,ECCENTRICITY,INCLINATION,RA_OF_ASC_NODE,ARG_OF_PERICENTER,MEAN_ANOMALY,BSTAR,MEAN_MOTION_DOT,MEAN_MOTION_DDOT,TLE_LINE0,TLE_LINE1,TLE_LINE2,SEMIMAJOR_AXIS,PERIOD,APOGEE,PERIGEE,DECAYED
52276.0,STARLINK-3778,PAYLOAD,2023-06-16 16:36:38,15.08857969,9.41e-05,53.2175,264.8147,97.3329,262.777,0.00014157,1.967e-05,0.0,0 STARLINK-3778,1 52276U 22041R   23167.69211002  .00001967  00000-0  14157-3 0  9995,2 52276  53.2175 264.8147 0000941  97.3329 262.7770 15.08857969 63857,6917.825,95.436,540.341,539.039,0.0
52276.0,STARLINK-3778,PAYLOAD,2023-06-16 22:58:12,15.08835157,0.0001523,53.2162,263.6234,97.6338,262.4828,7.5549e-07,-2.76e-06,0.0,0 STARLINK-3778,1 52276U 22041R   23167.95708646 -.00000276  00000-0  75549-6 0  9997,2 52276  53.2162 263.6234 0001523  97.6338 262.4828 15.08835157 65114,6917.895,95.438,540.814,538.707,0.0
52276.0,STARLINK-3778,PAYLOAD,2023-06-17 06:55:08,15.08828429,0.0001343,53.2163,262.1384,112.9744,247.139,-0.00010496,-1.957e-05,0.0,0 STARLINK-3778,1 52276U 22041R   23168.28829011 -.00001957  00000-0 -10496-3 0  9999,2 52276  53.2163 262.1384 0001343 112.9744 247.1390 15.08828429 63944,6917.916,95.438,540.71,538.852,0.0
52276.0,STARLINK-3778,PAYLOAD,2023-06-17 13:16:40,15.08829885,0.0001222,53.2169,260.9496,110.2561,249.8562,-9.5992e-05,-1.815e-05,0.0,0 STARLINK-3778,1 52276U 22041R   23168.55325093 -.00001815  00000-0 -95992-4 0  9998,2 52276  53.2169 260.9496 0001222 110.2561 249.8562 15.08829885 63985,6917.911,95.438,540.622,538.931,0.0
52276.0,STARLINK-3778,PAYLOAD,2023-06-18 13:07:27,15.08839779,0.0001121,53.217,256.4905,106.1798,253.9318,1.4744e-05,-5.3e-07,0.0,0 STARLINK-3778,1 52276U 22041R   23169.54684980 -.00000053  00000-0  14744-4 0  9999,2 52276  53.2170 256.4905 0001121 106.1798 253.9318 15.08839779 64132,6917.881,95.438,540.522,538.971,0.0
52276.0,STARLINK-3778,PAYLOAD,2023-06-19 08:12:05,15.08836979,0.0001001,53.2161,252.9219,101.2632,258.8472,0.00025717,3.807e-05,0.0,0 STARLINK-3778,1 52276U 22041R   23170.34173471  .00003807  00000-0  25717-3 0  9997,2 52276  53.2161 252.9219 0001001 101.2632 258.8472 15.08836979 64258,6917.89,95.438,540.447,539.062,0.0
52276.0,STARLINK-3778,PAYLOAD,2023-06-19 22:30:33,15.08843832,9.32e-05,53.2154,250.2456,96.9901,263.1197,0.00017849,2.554e-05,0.0,0 STARLINK-3778,1 52276U 22041R   23170.93789123  .00002554  00000-0  17849-3 0  9994,2 52276  53.2154 250.2456 0000932  96.9901 263.1197 15.08843832 65569,6917.869,95.437,540.378,539.089,0.0
52276.0,STARLINK-3778,PAYLOAD,2023-06-20 11:13:39,15.08838683,8.39e-05,53.2153,247.8676,101.5368,258.5719,8.4726e-05,1.061e-05,0.0,0 STARLINK-3778,1 52276U 22041R   23171.46781413  .00001061  00000-0  84726-4 0  9998,2 52276  53.2153 247.8676 0000839 101.5368 258.5719 15.08838683 64420,6917.884,95.438,540.33,539.169,0.0
52276.0,STARLINK-3778,PAYLOAD,2023-06-20 14:24:25,15.08842649,9.33e-05,53.2154,247.272,97.3668,262.743,8.3322e-05,1.039e-05,0.0,0 STARLINK-3778,1 52276U 22041R   23171.60029225  .00001039  00000-0  83322-4 0  9996,2 52276  53.2154 247.2720 0000933  97.3668 262.7430 15.08842649 64441,6917.872,95.437,540.383,539.092,0.0
52276.0,STARLINK-3778,PAYLOAD,2023-06-20 23:56:44,15.08842626,9.13e-05,53.2155,245.4878,92.4915,267.6181,6.0106e-05,6.69e-06,0.0,0 STARLINK-3778,1 52276U 22041R   23171.99773194  .00000669  00000-0  60106-4 0  9992,2 52276  53.2155 245.4878 0000913  92.4915 267.6181 15.08842626 65729,6917.872,95.437,540.369,539.106,0.0
52276.0,STARLINK-3778,PAYLOAD,2023-06-21 11:04:25,15.0884578,9.13e-05,53.2152,243.406,98.3577,261.7519,9.1561e-05,1.17e-05,0.0,0 STARLINK-3778,1 52276U 22041R   23172.46141012  .00001170  00000-0  91561-4 0  9990,2 52276  53.2152 243.4060 0000913  98.3577 261.7519 15.08845780 64572,6917.863,95.437,540.359,539.096,0.0
52276.0,STARLINK-3778,PAYLOAD,2023-06-22 10:55:13,15.08832193,8.1e-05,53.2152,238.9445,94.9631,265.1454,4.7899e-05,4.75e-06,0.0,0 STARLINK-3778,1 52276U 22041R   23173.45501930  .00000475  00000-0  47899-4 0  9991,2 52276  53.2152 238.9445 0000810  94.9631 265.1454 15.08832193 65949,6917.904,95.438,540.33,539.209,0.0
52276.0,STARLINK-3778,PAYLOAD,2023-06-22 23:38:18,15.08840992,9.69e-05,53.2163,236.5665,85.9346,274.1757,6.5908e-05,7.61e-06,0.0,0 STARLINK-3778,1 52276U 22041R   23173.98493395  .00000761  00000-0  65908-4 0  9993,2 52276  53.2163 236.5665 0000969  85.9346 274.1757 15.08840992 66029,6917.877,95.437,540.413,539.072,0.0
52276.0,STARLINK-3778,PAYLOAD,2023-06-23 13:56:46,15.08848106,0.0001019,53.2164,233.89,86.4902,273.6206,0.00012209,1.656e-05,0.0,0 STARLINK-3778,1 52276U 22041R   23174.58108803  .00001656  00000-0  12209-3 0  9996,2 52276  53.2164 233.8900 0001019  86.4902 273.6206 15.08848106 66111,6917.856,95.437,540.426,539.016,0.0
52276.0,STARLINK-3778,PAYLOAD,2023-06-23 23:29:05,15.08832777,8.55e-05,53.2154,232.1039,82.9419,277.1671,0.00013954,1.933e-05,0.0,0 STARLINK-3778,1 52276U 22041R   23174.97853628  .00001933  00000-0  13954-3 0  9997,2 52276  53.2154 232.1039 0000855  82.9419 277.1671 15.08832777 66174,6917.902,95.438,540.359,539.176,0.0
52276.0,STARLINK-3778,PAYLOAD,2023-06-25 02:30:39,15.08838392,9.83e-05,53.216,227.0511,80.3644,279.7459,3.1164e-05,2.08e-06,0.0,0 STARLINK-3778,1 52276U 22041R   23176.10461933  .00000208  00000-0  31164-4 0  9996,2 52276  53.2160 227.0511 0000983  80.3644 279.7459 15.08838392 66343,6917.885,95.438,540.43,539.07,0.0
52276.0,STARLINK-3778,PAYLOAD,2023-06-25 13:38:20,15.08846323,9.74e-05,53.2159,224.9693,82.6677,277.4426,8.6905e-05,1.096e-05,0.0,0 STARLINK-3778,1 52276U 22041R   23176.56829269  .00001096  00000-0  86905-4 0  9995,2 52276  53.2159 224.9693 0000974  82.6677 277.4426 15.08846323 66419,6917.861,95.437,540.4,539.052,0.0
52276.0,STARLINK-3778,PAYLOAD,2023-06-25 19:59:53,15.08841297,9.44e-05,53.2157,223.7802,80.947,279.1629,-4.8006e-06,-3.64e-06,0.0,0 STARLINK-3778,1 52276U 22041R   23176.83325764 -.00000364  00000-0 -48006-5 0  9996,2 52276  53.2157 223.7802 0000944  80.9470 279.1629 15.08841297 66458,6917.876,95.437,540.394,539.088,0.0
52276.0,STARLINK-3778,PAYLOAD,2023-06-26 08:42:58,15.08832507,0.0001048,53.2156,221.4014,81.034,279.0771,0.00012861,1.759e-05,0.0,0 STARLINK-3778,1 52276U 22041R   23177.36318258  .00001759  00000-0  12861-3 0  9990,2 52276  53.2156 221.4014 0001048  81.0340 279.0771 15.08832507 66531,6917.903,95.438,540.493,539.043,0.0
52276.0,STARLINK-3778,PAYLOAD,2023-06-27 10:09:09,15.08838346,9.98e-05,53.2157,216.643,86.0372,274.0734,6.6726e-05,7.74e-06,0.0,0 STARLINK-3778,1 52276U 22041R   23178.42302208  .00000774  00000-0  66726-4 0  9992,2 52276  53.2157 216.6430 0000998  86.0372 274.0734 15.08838346 66691,6917.885,95.438,540.441,539.06,0.0
52276.0,STARLINK-3778,PAYLOAD,2023-06-28 19:32:15,15.08837101,0.0001038,53.2158,210.3981,84.6565,275.4546,4.9934e-05,5.07e-06,0.0,0 STARLINK-3778,1 52276U 22041R   23179.81406456  .00000507  00000-0  49934-4 0  9992,2 52276  53.2158 210.3981 0001038  84.6565 275.4546 15.08837101 66906,6917.889,95.438,540.472,539.036,0.0
52276.0,STARLINK-3778,PAYLOAD,2023-07-01 07:56:54,15.08836421,0.0001011,53.2157,199.0975,80.046,280.0646,4.6439e-05,4.51e-06,0.0,0 STARLINK-3778,1 52276U 22041R   23182.33118496  .00000451  00000-0  46439-4 0  9992,2 52276  53.2157 199.0975 0001011  80.0460 280.0646 15.08836421 67285,6917.891,95.438,540.456,539.057,0.0
52276.0,STARLINK-3778,PAYLOAD,2023-07-02 12:33:50,15.0884065,0.0001037,53.216,193.7454,78.293,281.8179,2.6027e-05,1.26e-06,0.0,0 STARLINK-3778,1 52276U 22041R   23183.52350345  .00000126  00000-0  26027-4 0  9995,2 52276  53.2160 193.7454 0001037  78.2930 281.8179 15.08840650 67460,6917.878,95.438,540.461,539.026,0.0
52276.0,STARLINK-3778,PAYLOAD,2023-07-03 17:10:47,15.08836581,0.000104,53.2158,188.3928,76.2622,283.8486,3.6468e-05,2.93e-06,0.0,0 STARLINK-3778,1 52276U 22041R   23184.71582799  .00000293  00000-0  36468-4 0  9992,2 52276  53.2158 188.3928 0001040  76.2622 283.8486 15.08836581 67644,6917.891,95.438,540.475,539.036,0.0
52276.0,STARLINK-3778,PAYLOAD,2023-07-05 07:20:02,15.08839486,0.0001051,53.2157,181.2558,78.6598,281.4512,5.7629e-05,6.29e-06,0.0,0 STARLINK-3778,1 52276U 22041R   23186.30558732  .00000629  00000-0  57629-4 0  9994,2 52276  53.2157 181.2558 0001051  78.6598 281.4512 15.08839486 67881,6917.882,95.438,540.474,539.02,0.0
52276.0,STARLINK-3778,PAYLOAD,2023-07-06 05:35:27,15.08836747,0.0001071,53.2158,177.0924,80.6857,279.4256,1.4948e-05,-5e-07,0.0,0 STARLINK-3778,1 52276U 22041R   23187.23295170 -.00000050  00000-0  14948-4 0  9997,2 52276  53.2158 177.0924 0001071  80.6857 279.4256 15.08836747 68021,6917.89,95.438,540.496,539.014,0.0
52276.0,STARLINK-3778,PAYLOAD,2023-07-07 08:36:59,15.0884633,0.0001156,53.2159,172.0367,81.7154,278.3969,9.4893e-05,1.223e-05,0.0,0 STARLINK-3778,1 52276U 22041R   23188.35902281  .00001223  00000-0  94893-4 0  9998,2 52276  53.2159 172.0367 0001156  81.7154 278.3969 15.08846330 68190,6917.861,95.437,540.526,538.926,0.0
52276.0,STARLINK-3778,PAYLOAD,2023-07-07 16:33:55,15.08840968,0.0001188,53.2166,170.5501,80.491,279.6216,4.1742e-05,3.77e-06,0.0,0 STARLINK-3778,1 52276U 22041R   23188.69022701  .00000377  00000-0  41742-4 0  9999,2 52276  53.2166 170.5501 0001188  80.4910 279.6216 15.08840968 68248,6917.877,95.437,540.564,538.921,0.0
52276.0,STARLINK-3778,PAYLOAD,2023-07-09 05:07:48,15.08838729,0.0001193,53.2167,163.7118,84.4813,275.6315,-2.3246e-05,-6.58e-06,0.0,0 STARLINK-3778,1 52276U 22041R   23190.21375160 -.00000658  00000-0 -23246-4 0  9993,2 52276  53.2167 163.7118 0001193  84.4813 275.6315 15.08838729 68472,6917.884,95.438,540.575,538.924,0.0
52276.0,STARLINK-3778,PAYLOAD,2023-07-10 06:33:58,15.08839608,0.0001125,53.2164,158.954,87.5432,272.5689,2.8728e-05,1.69e-06,0.0,0 STARLINK-3778,1 52276U 22041R   23191.27359149  .00000169  00000-0  28728-4 0  9994,2 52276  53.2164 158.9540 0001125  87.5432 272.5689 15.08839608 68635,6917.882,95.438,540.525,538.968,0.0
